NORAD_CAT_ID,OBJECT_NAME,OBJECT_TYPE,EPOCH,MEAN_MOTION,ECCENTRICITY,INCLINATION,RA_OF_ASC_NODE,ARG_OF_PERICENTER,MEAN_ANOMALY,BSTAR,MEAN_MOTION_DOT,MEAN_MOTION_DDOT,TLE_LINE0,TLE_LINE1,TLE_LINE2,SEMIMAJOR_AXIS,PERIOD,APOGEE,PERIGEE,DECAYED
54811.0,STARLINK-5424,PAYLOAD,2024-01-13 06:06:01,15.08841542,0.0001818,53.2185,314.61,102.2668,257.8528,-2.209e-05,-6.4e-06,0.0,0 STARLINK-5424,1 54811U 22175BF  24013.25418144 -.00000640  00000-0 -22090-4 0  9994,2 54811  53.2185 314.6100 0001818 102.2668 257.8528 15.08841542 59316,6917.876,95.437,540.998,538.483,0.0
54811.0,STARLINK-5424,PAYLOAD,2024-01-14 05:56:48,15.08844978,0.0001496,53.2174,310.149,105.1487,254.9671,0.00015759,2.221e-05,0.0,0 STARLINK-5424,1 54811U 22175BF  24014.24778059  .00002221  00000-0  15759-3 0  9996,2 54811  53.2174 310.1490 0001496 105.1487 254.9671 15.08844978 61620,6917.865,95.437,540.765,538.695,0.0
54811.0,STARLINK-5424,PAYLOAD,2024-01-14 21:50:39,15.08841993,0.0001573,53.2175,307.1741,103.1504,256.9664,0.00012035,1.628e-05,0.0,0 STARLINK-5424,1 54811U 22175BF  24014.91018342  .00001628  00000-0  12035-3 0  9996,2 54811  53.2175 307.1741 0001573 103.1504 256.9664 15.08841993 61729,6917.874,95.437,540.827,538.651,0.0
54811.0,STARLINK-5424,PAYLOAD,2024-01-15 01:01:25,15.08844772,0.000152,53.2179,306.5793,95.5105,264.6061,0.00015508,2.181e-05,0.0,0 STARLINK-5424,1 54811U 22175BF  24015.04266097  .00002181  00000-0  15508-3 0  9996,2 54811  53.2179 306.5793 0001520  95.5105 264.6061 15.08844772 59582,6917.866,95.437,540.782,538.679,0.0
54811.0,STARLINK-5424,PAYLOAD,2024-01-16 04:02:59,15.08845404,0.0001562,53.2181,301.5254,99.9776,260.1393,7.8005e-05,9.54e-06,0.0,0 STARLINK-5424,1 54811U 22175BF  24016.16874296  .00000954  00000-0  78005-4 0  9994,2 54811  53.2181 301.5254 0001562  99.9776 260.1393 15.08845404 59751,6917.864,95.437,540.809,538.648,0.0
54811.0,STARLINK-5424,PAYLOAD,2024-01-17 02:18:23,15.08850873,0.0001463,53.2186,297.3627,91.2916,268.8243,2.9532e-05,1.82e-06,0.0,0 STARLINK-5424,1 54811U 22175BF  24017.09609964  .00000182  00000-0  29532-4 0  9999,2 54811  53.2186 297.3627 0001463  91.2916 268.8243 15.08850873 62055,6917.847,95.437,540.724,538.7,0.0
54811.0,STARLINK-5424,PAYLOAD,2024-01-17 22:58:24,15.08835936,0.0001342,53.2178,293.4978,96.144,263.9705,-1.4971e-06,-3.12e-06,0.0,0 STARLINK-5424,1 54811U 22175BF  24017.95722863 -.00000312  00000-0 -14971-5 0  9997,2 54811  53.2178 293.4978 0001342  96.1440 263.9705 15.08835936 62180,6917.893,95.438,540.686,538.829,0.0
54811.0,STARLINK-5424,PAYLOAD,2024-01-18 03:44:33,15.08845839,0.0001492,53.2188,292.6034,100.0966,260.0195,9.2271e-05,1.181e-05,0.0,0 STARLINK-5424,1 54811U 22175BF  24018.15594311  .00001181  00000-0  92271-4 0  9996,2 54811  53.2188 292.6034 0001492 100.0966 260.0195 15.08845839 60057,6917.863,95.437,540.76,538.695,0.0
54811.0,STARLINK-5424,PAYLOAD,2024-01-18 21:13:48,15.0884361,0.0001503,53.219,289.3305,90.7875,269.329,3.6298e-05,2.9e-06,0.0,0 STARLINK-5424,1 54811U 22175BF  24018.88458688  .00000290  00000-0  36298-4 0  9999,2 54811  53.2190 289.3305 0001503  90.7875 269.3290 15.08843610 62326,6917.869,95.437,540.774,538.695,0.0
54811.0,STARLINK-5424,PAYLOAD,2024-01-19 03:35:20,15.08849464,0.0001654,53.219,288.1406,83.2446,276.8734,6.9831e-05,8.24e-06,0.0,0 STARLINK-5424,1 54811U 22175BF  24019.14954089  .00000824  00000-0  69831-4 0  9997,2 54811  53.2190 288.1406 0001654  83.2446 276.8734 15.08849464 62366,6917.851,95.437,540.861,538.572,0.0
54811.0,STARLINK-5424,PAYLOAD,2024-01-19 22:39:58,15.08846948,0.0001644,53.2186,284.5722,106.6182,253.4991,1.3827e-05,-6.8e-07,0.0,0 STARLINK-5424,1 54811U 22175BF  24019.94442323 -.00000068  00000-0  13827-4 0  9993,2 54811  53.2186 284.5722 0001644 106.6182 253.4991 15.08846948 62481,6917.859,95.437,540.861,538.587,0.0
54811.0,STARLINK-5424,PAYLOAD,2024-01-20 03:26:07,15.08846835,0.0001683,53.2187,283.6805,107.2551,252.8625,1.7546e-05,-9e-08,0.0,0 STARLINK-5424,1 54811U 22175BF  24020.14314215 -.00000009  00000-0  17546-4 0  9992,2 54811  53.2187 283.6805 0001683 107.2551 252.8625 15.08846835 60350,6917.859,95.437,540.889,538.56,0.0
54811.0,STARLINK-5424,PAYLOAD,2024-01-20 17:44:36,15.08834925,0.0001412,53.2169,281.0075,110.7157,249.3986,-0.00010245,-1.918e-05,0.0,0 STARLINK-5424,1 54811U 22175BF  24020.73931463 -.00001918  00000-0 -10245-3 0  9996,2 54811  53.2169 281.0075 0001412 110.7157 249.3986 15.08834925 60440,6917.896,95.438,540.738,538.784,0.0
54811.0,STARLINK-5424,PAYLOAD,2024-01-20 22:30:45,15.08838318,0.0001552,53.2167,280.1094,111.5398,248.5759,-6.234e-05,-1.28e-05,0.0,0 STARLINK-5424,1 54811U 22175BF  24020.93802899 -.00001280  00000-0 -62340-4 0  9994,2 54811  53.2167 280.1094 0001552 111.5398 248.5759 15.08838318 62632,6917.886,95.438,540.824,538.677,0.0
54811.0,STARLINK-5424,PAYLOAD,2024-01-21 22:21:32,15.08845469,0.0001624,53.217,275.6555,119.0933,241.0222,-2.9012e-05,-7.5e-06,0.0,0 STARLINK-5424,1 54811U 22175BF  24021.93162883 -.00000750  00000-0 -29012-4 0  9997,2 54811  53.2170 275.6555 0001624 119.0933 241.0222 15.08845469 62789,6917.864,95.437,540.852,538.605,0.0
54811.0,STARLINK-5424,PAYLOAD,2024-01-22 01:32:18,15.08845133,0.0002082,53.2174,275.061,129.7239,230.3937,3.4905e-05,2.67e-06,0.0,0 STARLINK-5424,1 54811U 22175BF  24022.06410660  .00000267  00000-0  34905-4 0  9999,2 54811  53.2174 275.0610 0002082 129.7239 230.3937 15.08845133 60640,6917.865,95.437,541.17,538.289,0.0
54811.0,STARLINK-5424,PAYLOAD,2024-01-22 22:12:20,15.08833499,0.0001632,53.2184,271.2016,105.6216,254.4956,8.2641e-05,1.027e-05,0.0,0 STARLINK-5424,1 54811U 22175BF  24022.92523862  .00001027  00000-0  82641-4 0  9998,2 54811  53.2184 271.2016 0001632 105.6216 254.4956 15.08833499 62931,6917.9,95.438,540.894,538.636,0.0
54811.0,STARLINK-5424,PAYLOAD,2024-01-22 23:47:43,15.08836027,0.0001461,53.2182,270.9049,94.3113,265.8046,9.1863e-05,1.174e-05,0.0,0 STARLINK-5424,1 54811U 22175BF  24022.99147759  .00001174  00000-0  91863-4 0  9991,2 54811  53.2182 270.9049 0001461  94.3113 265.8046 15.08836027 60788,6917.893,95.438,540.768,538.747,0.0
54811.0,STARLINK-5424,PAYLOAD,2024-01-23 22:03:06,15.08845737,0.0001513,53.2184,266.7385,82.879,277.2374,0.00013736,1.899e-05,0.0,0 STARLINK-5424,1 54811U 22175BF  24023.91883087  .00001899  00000-0  13736-3 0  9991,2 54811  53.2184 266.7385 0001513  82.8790 277.2374 15.08845737 63082,6917.863,95.437,540.775,538.681,0.0
54811.0,STARLINK-5424,PAYLOAD,2024-01-23 23:38:29,15.08847944,0.0001509,53.2178,266.4406,81.4847,278.6316,0.00015631,2.201e-05,0.0,0 STARLINK-5424,1 54811U 22175BF  24023.98506880  .00002201  00000-0  15631-3 0  9995,2 54811  53.2178 266.4406 0001509  81.4847 278.6316 15.08847944 60933,6917.856,95.437,540.765,538.677,0.0
54811.0,STARLINK-5424,PAYLOAD,2024-01-24 20:18:31,15.08842602,0.0001464,53.2171,262.5731,79.1876,280.9281,5.7326e-05,6.25e-06,0.0,0 STARLINK-5424,1 54811U 22175BF  24024.84619590  .00000625  00000-0  57326-4 0  9990,2 54811  53.2171 262.5731 0001464  79.1876 280.9281 15.08842602 61068,6917.872,95.437,540.75,538.725,0.0
54811.0,STARLINK-5424,PAYLOAD,2024-01-24 21:53:54,15.08842278,0.000144,53.2172,262.2764,80.6711,279.4444,5.2971e-05,5.55e-06,0.0,0 STARLINK-5424,1 54811U 22175BF  24024.91243576  .00000555  00000-0  52971-4 0  9998,2 54811  53.2172 262.2764 0001440  80.6711 279.4444 15.08842278 63235,6917.873,95.437,540.735,538.742,0.0
54811.0,STARLINK-5424,PAYLOAD,2024-01-24 23:29:17,15.08842857,0.000151,53.2175,261.9821,79.3049,280.8114,5.8909e-05,6.5e-06,0.0,0 STARLINK-5424,1 54811U 22175BF  24024.97867567  .00000650  00000-0  58909-4 0  9999,2 54811  53.2175 261.9821 0001510  79.3049 280.8114 15.08842857 63249,6917.872,95.437,540.781,538.692,0.0
54811.0,STARLINK-5424,PAYLOAD,2024-01-25 21:44:41,15.08843179,0.0001339,53.2161,257.8146,91.1495,268.965,-2.9254e-05,-7.54e-06,0.0,0 STARLINK-5424,1 54811U 22175BF  24025.90603664 -.00000754  00000-0 -29254-4 0  9997,2 54811  53.2161 257.8146 0001339  91.1495 268.9650 15.08843179 63389,6917.871,95.437,540.662,538.809,0.0
54811.0,STARLINK-5424,PAYLOAD,2024-01-26 21:35:27,15.08854685,0.000146,53.2167,253.353,104.9869,255.1285,0.00020893,3.04e-05,0.0,0 STARLINK-5424,1 54811U 22175BF  24026.89962367  .00003040  00000-0  20893-3 0  9992,2 54811  53.2167 253.3530 0001460 104.9869 255.1285 15.08854685 61379,6917.836,95.437,540.711,538.69,0.0
54811.0,STARLINK-5424,PAYLOAD,2024-01-27 19:50:52,15.08843632,0.0001217,53.2164,249.1905,75.9597,284.1531,9.6084e-05,1.242e-05,0.0,0 STARLINK-5424,1 54811U 22175BF  24027.82699305  .00001242  00000-0  96084-4 0  9993,2 54811  53.2164 249.1905 0001217  75.9597 284.1531 15.08843632 61512,6917.869,95.437,540.576,538.892,0.0
54811.0,STARLINK-5424,PAYLOAD,2024-01-27 21:26:15,15.08841897,0.0001324,53.2167,248.8907,108.7823,251.3313,6.5611e-05,7.57e-06,0.0,0 STARLINK-5424,1 54811U 22175BF  24027.89323222  .00000757  00000-0  65611-4 0  9994,2 54811  53.2167 248.8907 0001324 108.7823 251.3313 15.08841897 63684,6917.875,95.437,540.656,538.824,0.0
54811.0,STARLINK-5424,PAYLOAD,2024-01-28 19:41:39,15.08839215,0.0001361,53.2158,244.7286,96.6238,263.4909,-2.0843e-05,-6.2e-06,0.0,0 STARLINK-5424,1 54811U 22175BF  24028.82059832 -.00000620  00000-0 -20843-4 0  9990,2 54811  53.2158 244.7286 0001361  96.6238 263.4909 15.08839215 61667,6917.883,95.438,540.689,538.806,0.0
54811.0,STARLINK-5424,PAYLOAD,2024-01-28 21:17:02,15.08841002,0.0001417,53.2162,244.4318,95.9181,264.1973,-2.0295e-06,-3.2e-06,0.0,0 STARLINK-5424,1 54811U 22175BF  24028.88683650 -.00000320  00000-0 -20295-5 0  9996,2 54811  53.2162 244.4318 0001417  95.9181 264.1973 15.08841002 63833,6917.877,95.437,540.723,538.762,0.0
54811.0,STARLINK-5424,PAYLOAD,2024-01-29 14:46:17,15.08836918,0.0001424,53.2165,241.162,86.5578,273.5577,0.00010369,1.363e-05,0.0,0 STARLINK-5424,1 54811U 22175BF  24029.61547498  .00001363  00000-0  10369-3 0  9992,2 54811  53.2165 241.1620 0001424  86.5578 273.5577 15.08836918 63946,6917.89,95.438,540.74,538.77,0.0
